NORAD_CAT_ID,OBJECT_NAME,OBJECT_TYPE,EPOCH,MEAN_MOTION,ECCENTRICITY,INCLINATION,RA_OF_ASC_NODE,ARG_OF_PERICENTER,MEAN_ANOMALY,BSTAR,MEAN_MOTION_DOT,MEAN_MOTION_DDOT,TLE_LINE0,TLE_LINE1,TLE_LINE2,SEMIMAJOR_AXIS,PERIOD,APOGEE,PERIGEE,DECAYED
53184.0,STARLINK-4257,PAYLOAD,2023-11-05 20:14:57,15.08852918,0.0001587,53.2184,1.2572,73.0613,287.0553,0.0001662,2.359e-05,0.0,0 STARLINK-4257,1 53184U 22083BE  23309.84371874  .00002359  00000-0  16620-3 0  9992,2 53184  53.2184   1.2572 0001587  73.0613 287.0553 15.08852918 72875,6917.841,95.437,540.804,538.608,0.0
53184.0,STARLINK-4257,PAYLOAD,2023-11-06 08:58:01,15.08855901,0.0001591,53.2188,358.8767,86.6176,273.4998,0.00014407,2.007e-05,0.0,0 STARLINK-4257,1 53184U 22083BE  23310.37363371  .00002007  00000-0  14407-3 0  9996,2 53184  53.2188 358.8767 0001591  86.6176 273.4998 15.08855901 72951,6917.832,95.437,540.797,538.596,0.0
53184.0,STARLINK-4257,PAYLOAD,2023-11-07 02:27:20,15.08814107,0.0001848,53.2187,355.6142,98.38,261.7402,-0.00023594,-4.038e-05,0.0,0 STARLINK-4257,1 53184U 22083BE  23311.10232120 -.00004038  00000-0 -23594-3 0  9990,2 53184  53.2187 355.6142 0001848  98.3800 261.7402 15.08814107 73696,6917.96,95.439,541.103,538.546,0.0
53184.0,STARLINK-4257,PAYLOAD,2023-11-07 10:24:17,15.08805252,0.000156,53.2178,354.1243,76.3603,283.7562,-0.00029462,-4.969e-05,0.0,0 STARLINK-4257,1 53184U 22083BE  23311.43353596 -.00004969  00000-0 -29462-3 0  9990,2 53184  53.2178 354.1243 0001560  76.3603 283.7562 15.08805252 73748,6917.987,95.44,540.931,538.772,0.0
53184.0,STARLINK-4257,PAYLOAD,2023-11-07 19:56:35,15.08825496,0.0001502,53.2195,352.344,86.3303,273.786,-7.0737e-05,-1.413e-05,0.0,0 STARLINK-4257,1 53184U 22083BE  23311.83096135 -.00001413  00000-0 -70737-4 0  9990,2 53184  53.2195 352.3440 0001502  86.3303 273.7860 15.08825496 73809,6917.925,95.438,540.829,538.751,0.0
53184.0,STARLINK-4257,PAYLOAD,2023-11-08 02:18:06,15.08845344,0.0001823,53.2177,351.1505,78.3093,281.8104,0.00017738,2.536e-05,0.0,0 STARLINK-4257,1 53184U 22083BE  23312.09590408  .00002536  00000-0  17738-3 0  9997,2 53184  53.2177 351.1505 0001823  78.3093 281.8104 15.08845344 73840,6917.864,95.437,540.99,538.468,0.0
53184.0,STARLINK-4257,PAYLOAD,2023-11-08 11:50:23,15.08863779,0.0001601,53.219,349.366,88.1215,271.9961,0.00019041,2.746e-05,0.0,0 STARLINK-4257,1 53184U 22083BE  23312.49332922  .00002746  00000-0  19041-3 0  9998,2 53184  53.2190 349.3660 0001601  88.1215 271.9961 15.08863779 73905,6917.808,95.436,540.78,538.565,0.0
53184.0,STARLINK-4257,PAYLOAD,2023-11-08 19:47:20,15.08835156,0.0001358,53.2183,347.8799,93.1415,266.9732,0.00035621,5.385e-05,0.0,0 STARLINK-4257,1 53184U 22083BE  23312.82454213  .00005385  00000-0  35621-3 0  9997,2 53184  53.2183 347.8799 0001358  93.1415 266.9732 15.08835156 73953,6917.895,95.438,540.7,538.821,0.0
53184.0,STARLINK-4257,PAYLOAD,2023-11-09 10:05:48,15.08838147,0.0001725,53.2182,345.2049,61.502,298.6145,0.00044129,6.742e-05,0.0,0 STARLINK-4257,1 53184U 22083BE  23313.42070299  .00006742  00000-0  44129-3 0  9993,2 53184  53.2182 345.2049 0001725  61.5020 298.6145 15.08838147 73415,6917.886,95.438,540.944,538.558,0.0
53184.0,STARLINK-4257,PAYLOAD,2023-11-09 19:38:07,15.08840662,0.00016,53.2193,343.4211,78.6017,281.5154,0.00028599,4.267e-05,0.0,0 STARLINK-4257,1 53184U 22083BE  23313.81814486  .00004267  00000-0  28599-3 0  9993,2 53184  53.2193 343.4211 0001600  78.6017 281.5154 15.08840662 73477,6917.878,95.438,540.85,538.637,0.0
53184.0,STARLINK-4257,PAYLOAD,2023-11-10 01:59:40,15.08850965,0.0001607,53.2178,342.2292,81.5707,278.5467,-7.1849e-05,-1.432e-05,0.0,0 STARLINK-4257,1 53184U 22083BE  23314.08310706 -.00001432  00000-0 -71849-4 0  9999,2 53184  53.2178 342.2292 0001607  81.5707 278.5467 15.08850965 74147,6917.847,95.437,540.824,538.6,0.0
53184.0,STARLINK-4257,PAYLOAD,2023-11-10 11:31:58,15.08860273,0.0001413,53.2175,340.4434,84.1017,276.0137,-3.9966e-05,-9.24e-06,0.0,0 STARLINK-4257,1 53184U 22083BE  23314.48053551 -.00000924  00000-0 -39966-4 0  9994,2 53184  53.2175 340.4434 0001413  84.1017 276.0137 15.08860273 74207,6917.818,95.436,540.661,538.706,0.0
53184.0,STARLINK-4257,PAYLOAD,2023-11-10 19:28:54,15.08849614,0.0001766,53.2194,338.9563,78.3912,281.7278,-0.00018824,-3.284e-05,0.0,0 STARLINK-4257,1 53184U 22083BE  23314.81174452 -.00003284  00000-0 -18824-3 0  9996,2 53184  53.2194 338.9563 0001766  78.3912 281.7278 15.08849614 74253,6917.851,95.437,540.938,538.494,0.0
53184.0,STARLINK-4257,PAYLOAD,2023-11-11 08:11:59,15.08843097,0.0001595,53.2177,336.5788,84.587,275.5304,-9.0643e-05,-1.73e-05,0.0,0 STARLINK-4257,1 53184U 22083BE  23315.34166382 -.00001730  00000-0 -90643-4 0  9992,2 53184  53.2177 336.5788 0001595  84.5870 275.5304 15.08843097 73708,6917.871,95.437,540.839,538.633,0.0
53184.0,STARLINK-4257,PAYLOAD,2023-11-12 01:41:14,15.08837573,0.0001521,53.2172,333.3073,85.7639,274.3527,2.3788e-05,9.1e-07,0.0,0 STARLINK-4257,1 53184U 22083BE  23316.07030143  .00000091  00000-0  23788-4 0  9991,2 53184  53.2172 333.3073 0001521  85.7639 274.3527 15.08837573 74448,6917.888,95.438,540.805,538.701,0.0
53184.0,STARLINK-4257,PAYLOAD,2023-11-12 08:02:46,15.08841153,0.0001521,53.2174,332.1183,85.4546,274.662,4.6535e-05,4.53e-06,0.0,0 STARLINK-4257,1 53184U 22083BE  23316.33525921  .00000453  00000-0  46535-4 0  9990,2 53184  53.2174 332.1183 0001521  85.4546 274.6620 15.08841153 73853,6917.877,95.437,540.794,538.69,0.0
53184.0,STARLINK-4257,PAYLOAD,2023-11-13 07:53:33,15.08835205,0.0001534,53.2184,327.6605,87.2932,272.8236,0.00017545,2.505e-05,0.0,0 STARLINK-4257,1 53184U 22083BE  23317.32886054  .00002505  00000-0  17545-3 0  9995,2 53184  53.2184 327.6605 0001534  87.2932 272.8236 15.08835205 74636,6917.895,95.438,540.821,538.699,0.0
53184.0,STARLINK-4257,PAYLOAD,2023-11-13 17:25:52,15.08841015,0.0001472,53.2181,325.8762,115.0778,245.0367,9.9286e-06,-1.3e-06,0.0,0 STARLINK-4257,1 53184U 22083BE  23317.72629989 -.00000130  00000-0  99286-5 0  9998,2 53184  53.2181 325.8762 0001472 115.0778 245.0367 15.08841015 74066,6917.877,95.437,540.761,538.724,0.0
53184.0,STARLINK-4257,PAYLOAD,2023-11-14 09:19:43,15.08839785,0.0001516,53.2188,322.9007,89.7398,270.3768,4.7914e-05,4.75e-06,0.0,0 STARLINK-4257,1 53184U 22083BE  23318.38870159  .00000475  00000-0  47914-4 0  9999,2 53184  53.2188 322.9007 0001516  89.7398 270.3768 15.08839785 74794,6917.881,95.438,540.795,538.697,0.0
53184.0,STARLINK-4257,PAYLOAD,2023-11-14 17:16:39,15.0885011,0.000193,53.2194,321.4139,129.3956,230.7208,-0.00017976,-3.149e-05,0.0,0 STARLINK-4257,1 53184U 22083BE  23318.71989939 -.00003149  00000-0 -17976-3 0  9990,2 53184  53.2194 321.4139 0001930 129.3956 230.7208 15.08850110 74213,6917.849,95.437,541.05,538.379,0.0
53184.0,STARLINK-4257,PAYLOAD,2023-11-15 09:10:31,15.08838413,0.0001617,53.2182,318.4381,83.4768,276.6408,-5.5247e-05,-1.167e-05,0.0,0 STARLINK-4257,1 53184U 22083BE  23319.38230878 -.00001167  00000-0 -55247-4 0  9997,2 53184  53.2182 318.4381 0001617  83.4768 276.6408 15.08838413 74941,6917.885,95.438,540.869,538.632,0.0
53184.0,STARLINK-4257,PAYLOAD,2023-11-16 09:01:18,15.08841211,0.0001703,53.2184,313.9781,87.6052,272.5135,4.2428e-05,3.87e-06,0.0,0 STARLINK-4257,1 53184U 22083BE  23320.37590672  .00000387  00000-0  42428-4 0  9997,2 53184  53.2184 313.9781 0001703  87.6052 272.5135 15.08841211 74464,6917.877,95.437,540.92,538.564,0.0
53184.0,STARLINK-4257,PAYLOAD,2023-11-16 16:58:14,15.08837922,0.0001591,53.2181,312.4912,87.052,273.0655,4.2722e-07,-2.81e-06,0.0,0 STARLINK-4257,1 53184U 22083BE  23320.70711001 -.00000281  00000-0  42722-6 0  9998,2 53184  53.2181 312.4912 0001591  87.0520 273.0655 15.08837922 75143,6917.887,95.438,540.852,538.651,0.0
53184.0,STARLINK-4257,PAYLOAD,2023-11-17 08:52:05,15.08841029,0.0001403,53.2181,309.5148,101.6174,258.4975,6.7112e-05,7.8e-06,0.0,0 STARLINK-4257,1 53184U 22083BE  23321.36950625  .00000780  00000-0  67112-4 0  9999,2 53184  53.2181 309.5148 0001403 101.6174 258.4975 15.08841029 74617,6917.877,95.437,540.713,538.772,0.0
53184.0,STARLINK-4257,PAYLOAD,2023-11-17 16:49:00,15.08841349,0.000133,53.2179,308.0295,104.6165,255.4975,4.9237e-05,4.96e-06,0.0,0 STARLINK-4257,1 53184U 22083BE  23321.70070595  .00000496  00000-0  49237-4 0  9998,2 53184  53.2179 308.0295 0001330 104.6165 255.4975 15.08841349 74660,6917.876,95.437,540.661,538.821,0.0
53184.0,STARLINK-4257,PAYLOAD,2023-11-18 03:56:42,15.08844005,0.0001449,53.2177,305.9479,98.9467,261.1689,1.1803e-05,-1e-06,0.0,0 STARLINK-4257,1 53184U 22083BE  23322.16438648 -.00000100  00000-0  11803-4 0  9997,2 53184  53.2177 305.9479 0001449  98.9467 261.1689 15.08844005 75365,6917.868,95.437,540.736,538.731,0.0
53184.0,STARLINK-4257,PAYLOAD,2023-11-18 05:32:12,15.08757568,0.0001913,53.2197,305.6526,85.3794,274.7416,-0.00071819,-0.00011674,0.0,0 STARLINK-4257,1 53184U 22083BE  23322.23070151 -.00011674  00000-0 -71819-3 0  9997,2 53184  53.2197 305.6526 0001913  85.3794 274.7416 15.08757568 75372,6918.132,95.443,541.321,538.674,0.0
53184.0,STARLINK-4257,PAYLOAD,2023-11-18 16:39:47,15.0885213,9.96e-05,53.2199,303.5704,87.0172,273.0934,4.3661e-05,4.07e-06,0.0,0 STARLINK-4257,1 53184U 22083BE  23322.69429841  .00000407  00000-0  43661-4 0  9996,2 53184  53.2199 303.5704 0000996  87.0172 273.0934 15.08852130 75444,6917.843,95.437,540.397,539.019,0.0
53184.0,STARLINK-4257,PAYLOAD,2023-11-18 23:01:21,15.0883457,0.0001352,53.2201,302.3811,89.0561,271.0587,-2.5917e-05,-7e-06,0.0,0 STARLINK-4257,1 53184U 22083BE  23322.95927277 -.00000700  00000-0 -25917-4 0  9993,2 53184  53.2201 302.3811 0001352  89.0561 271.0587 15.08834570 74859,6917.897,95.438,540.697,538.827,0.0
53184.0,STARLINK-4257,PAYLOAD,2023-11-19 03:47:29,15.08842858,0.0001609,53.2191,301.4893,90.0227,270.0949,4.6974e-05,4.6e-06,0.0,0 STARLINK-4257,1 53184U 22083BE  23323.15798541  .00000460  00000-0  46974-4 0  9993,2 53184  53.2191 301.4893 0001609  90.0227 270.0949 15.08842858 75516,6917.872,95.437,540.85,538.624,0.0
